0 SL-14 DEB
1 25831U 78100AT  13266.00000000  .00000027  00000-0  23151-3 0  7906
2 25831 082.5492 147.7367 0012102 249.8450 252.0271 11.97423800697987
0 SL-14 DEB
1 25831U 78100AT  13266.00000000  .00000027  00000-0  23151-3 0  7917
2 25831 082.5492 147.7367 0012102 249.8450 252.0271 11.97423800697987
0 SL-14 DEB
1 25831U 78100AT  13269.35919536 -.00000022  00000-0 -39558-3 0  7938
2 25831 082.5495 145.8333 0012956 239.5806 336.2253 11.97424716698387
0 SL-14 DEB
1 25831U 78100AT  13269.35919536 -.00000022  00000-0 -39558-3 0  7949
2 25831 082.5495 145.8333 0012956 239.5806 336.2253 11.97424716698387
